#aV2009 10  8  0  0   .00000000      96 DD+AD WGS84 FIT  NGA
## 1552 345600.00000000   900.00000000 55112  .0000000000000
+   32     1  2  3  4  5  6  7  8  9 10 11 12 13 14 15 16 17
+         18 19 20 21 22 23 24 25 26 27 28 29 30 31 32  0  0
+          0  0  0  0  0  0  0  0  0  0  0  0  0  0  0  0  0
+          0  0  0  0  0  0  0  0  0  0  0  0  0  0  0  0  0
+          0  0  0  0  0  0  0  0  0  0  0  0  0  0  0  0  0
++         0  0  0  0  0  0  0  0  0  0  0  0  0  0  0  0  0
++         0  0  0  0  0  0  0  0  0  0  0  0  0  0  0  0  0
++         0  0  0  0  0  0  0  0  0  0  0  0  0  0  0  0  0
++         0  0  0  0  0  0  0  0  0  0  0  0  0  0  0  0  0
++         0  0  0  0  0  0  0  0  0  0  0  0  0  0  0  0  0
%c cc cc ccc ccc cccc cccc cccc cccc ccccc ccccc ccccc ccccc
%c cc cc ccc ccc cccc cccc cccc cccc ccccc ccccc ccccc ccccc
%f  0.0000000  0.000000000  0.00000000000  0.000000000000000
%f  0.0000000  0.000000000  0.00000000000  0.000000000000000
%i    0    0    0    0      0      0      0      0         0
%i    0    0    0    0      0      0      0      0         0
/*      NGA, ST. LOUIS,MO.                                  
/*   EPHEMERIS COMPUTED FROM  3 DAYS OF DATA                
/* CCCCCCCCCCCCCCCCCCCCCCCCCCCCCCCCCCCCCCCCCCCCCCCCCCCCCCCCC
/* CCCCCCCCCCCCCCCCCCCCCCCCCCCCCCCCCCCCCCCCCCCCCCCCCCCCCCCCC
*  2009 10  8 10 30   .00000000                                                 
P  1  15449.690226  -2865.721271  21297.547454    -59.665493                    
V  1  -3461.718556  27082.522210   6225.988340      -.012262                    
P  2   8201.374722  20413.466577  15106.792192    179.057370                    
V  2 -16454.891797 -10116.841237  22072.386863       .034962                    
P  3  -4358.825057 -15742.633563 -21248.335301    457.745301                    
V  3  23652.142769 -11702.577369   4235.907444       .052398                    
P  4  -3231.616123  16499.381542  20330.810701   -301.240320                    
V  4 -21203.623106 -15637.114109   9618.321407      -.176132                    
P  5   3980.750063  23895.667214 -10816.410737    -70.473834                    
V  5  -4544.861714  13208.590904  27602.595523       .092364                    
P  6    677.993930 -16774.873308 -20382.269536    250.344341                    
V  6  24608.833737  -9652.625215   8776.674909       .047238                    
P  7 -20919.737740  -2559.204806 -16272.392148     10.017130                    
V  7 -14963.220364 -14178.282909  21339.849795      -.007215                    
P  8 -12885.278616   7734.619967 -21988.473760   -224.257560                    
V  8 -20345.633834 -18779.518504   4818.432145      -.017437                    
P  9  21183.821141  16054.925596    -52.994297     81.830657                    
V  9   -763.354941   2222.747011 -32105.825405       .021148                    
P 10   1881.551440  24829.806580  -8891.264950    -25.345252                    
V 10  -4887.929309  10475.421293  29070.867202      -.008838                    
P 11 -24347.842825 -11015.104874   1094.433245    -23.236293                    
V 11    598.831813  -4954.832595 -29829.536128      -.017908                    
P 12  12256.468679  11973.517724  20379.614925   -207.517476                    
V 12  -5022.023578  25223.808807 -11709.131793       .055145                    
P 13 -25691.309110   5711.849869   3519.980682    305.459088                    
V 13   3877.553281  -3030.147644  32060.249318       .003055                    
P 14  19043.337688 -14474.053057  11536.674195    -40.490295                    
V 14  14242.940618  -2987.273469 -27703.597529       .050609                    
P 15  11723.055086  11267.571942 -20985.233042   -319.897819                    
V 15 -24515.109346  10646.720592  -7892.891829      -.005309                    
P 16   2278.669217 -26086.684981  -3509.714655      4.699319                    
V 16   3498.568611  -3980.080496  31688.291365      -.039903                    
P 17 -18590.976787  15149.932266  11268.454195     91.344654                    
V 17 -14291.068335   2460.172483 -27253.397201       .032132                    
P 18  15707.236809  -9552.573704 -18784.559828     18.621382                    
V 18  -2601.897806  24511.207411 -14822.991875       .028442                    
P 19 -13363.317873 -10854.259409 -20251.508245      7.293605                    
V 19  24387.106511  -8323.983833 -11335.243812      -.017616                    
P 20 -14301.653720  -7933.969820  20813.009418     70.471563                    
V 20   4213.466953 -26456.558020  -7100.800645      -.008816                    
P 21  19571.270480   -932.787269 -17915.811054    -13.843216                    
V 21  16717.896420  16161.668937  16525.231232      -.023154                    
P 22  12070.462392 -20893.110596 -10843.801055    189.219356                    
V 22    468.699381  14432.805373 -26951.352570      -.010068                    
P 23 -21588.804269  -3092.760908  15337.783883    387.748404                    
V 23  17565.558587  -8373.426075  22689.941471      -.004526                    
P 24  22131.831267  11434.413309  -8721.669441    226.862640                    
V 24   6374.770443   9870.087493  28972.926549       .030888                    
P 25 -23332.158172  -7695.960479  -9503.573111    623.616902                    
V 25  -9136.039029  -9021.842139  28901.360464       .138400                    
P 26  24557.257123 -10083.010689   3293.302634      8.789544                    
V 26   4998.410229    -69.297799 -31760.527828      -.012836                    
P 27  20295.712891  16821.823270  -2695.901893     89.424603                    
V 27  -4828.282292   -578.134568 -31834.020298       .033252                    
P 28 -12653.315647  18962.382425 -12919.908128    -25.978835                    
V 28    808.397502 -17391.134877 -25761.490256       .001138                    
P 29  25388.884633  -4029.749078   6680.213040     64.184703                    
V 29  -6982.474578   5363.864574  30236.628500       .032786                    
P 30  15323.567919   -955.632944  21282.876763    183.176972                    
V 30  -2769.400159  27839.941362   3249.061910       .031218                    
P 31    324.327128 -17385.282993  20243.641279    -63.266108                    
V 31  20265.375145  15088.290980  12903.089296       .006297                    
P 32  -9571.630600 -16502.734487  18981.154292    181.899549                    
V 32   6666.701940 -22253.888288 -16037.573402      -.072879                    
EOF
